[Satellite]
VERSION=1.1
NAME=STARS-Me Mother
NICKNAME=STARS-Me Mother
TLE1=1 43640U 98067PQ  20156.72371300  .00012014  00000-0  12277-3 0  9994
TLE2=2 43640  51.6358  12.8034 0003367 355.5746   4.5219 15.65507443 94733
STATUS=0
